NORAD_CAT_ID,OBJECT_NAME,OBJECT_TYPE,EPOCH,MEAN_MOTION,ECCENTRICITY,INCLINATION,RA_OF_ASC_NODE,ARG_OF_PERICENTER,MEAN_ANOMALY,BSTAR,MEAN_MOTION_DOT,MEAN_MOTION_DDOT,TLE_LINE0,TLE_LINE1,TLE_LINE2,SEMIMAJOR_AXIS,PERIOD,APOGEE,PERIGEE,DECAYED
54090.0,STARLINK-5177,PAYLOAD,2023-06-16 15:11:11,15.08845199,0.0001205,53.2169,129.9928,92.8557,267.2573,3.7463e-05,3.08e-06,0.0,0 STARLINK-5177,1 54090U 22136AR  23167.63277612  .00000308  00000-0  37463-4 0  9993,2 54090  53.2169 129.9928 0001205  92.8557 267.2573 15.08845199 36933,6917.864,95.437,540.563,538.896,0.0
54090.0,STARLINK-5177,PAYLOAD,2023-06-17 07:05:02,15.08849453,0.0001209,53.2167,127.019,92.5764,267.5367,1.3596e-05,-7.1e-07,0.0,0 STARLINK-5177,1 54090U 22136AR  23168.29517096 -.00000071  00000-0  13596-4 0  9998,2 54090  53.2167 127.0190 0001209  92.5764 267.5367 15.08849453 36562,6917.851,95.437,540.553,538.88,0.0
54090.0,STARLINK-5177,PAYLOAD,2023-06-18 06:55:50,15.08836343,0.000133,53.2169,122.5581,91.3304,268.784,-8.17e-05,-1.588e-05,0.0,0 STARLINK-5177,1 54090U 22136AR  23169.28878279 -.00001588  00000-0 -81700-4 0  9998,2 54090  53.2169 122.5581 0001330  91.3304 268.7840 15.08836343 37182,6917.892,95.438,540.677,538.836,0.0
54090.0,STARLINK-5177,PAYLOAD,2023-06-19 03:35:50,15.08843923,0.0001255,53.2167,118.6938,90.3799,269.7337,5.5375e-05,5.94e-06,0.0,0 STARLINK-5177,1 54090U 22136AR  23170.14989458  .00000594  00000-0  55375-4 0  9990,2 54090  53.2167 118.6938 0001255  90.3799 269.7337 15.08843923 37314,6917.868,95.437,540.602,538.865,0.0
54090.0,STARLINK-5177,PAYLOAD,2023-06-19 13:08:09,15.08842051,0.0001212,53.2168,116.9094,97.882,262.2309,6.6966e-06,-1.81e-06,0.0,0 STARLINK-5177,1 54090U 22136AR  23170.54733690 -.00000181  00000-0  66966-5 0  9991,2 54090  53.2168 116.9094 0001212  97.8820 262.2309 15.08842051 36901,6917.874,95.437,540.578,538.901,0.0
54090.0,STARLINK-5177,PAYLOAD,2023-06-20 03:26:38,15.0883845,0.0001174,53.2166,114.235,90.7844,269.3283,6.8475e-05,8.02e-06,0.0,0 STARLINK-5177,1 54090U 22136AR  23171.14349992  .00000802  00000-0  68475-4 0  9991,2 54090  53.2166 114.2350 0001174  90.7844 269.3283 15.08838450 37469,6917.885,95.438,540.562,538.938,0.0
54090.0,STARLINK-5177,PAYLOAD,2023-06-20 05:02:01,15.08837323,0.000123,53.2168,113.9355,87.9681,272.1452,6.9652e-05,8.21e-06,0.0,0 STARLINK-5177,1 54090U 22136AR  23171.20974031  .00000821  00000-0  69652-4 0  9995,2 54090  53.2168 113.9355 0001230  87.9681 272.1452 15.08837323 37000,6917.889,95.438,540.604,538.903,0.0
54090.0,STARLINK-5177,PAYLOAD,2023-06-20 19:20:30,15.0881713,0.000119,53.2168,111.2614,100.0864,260.0263,0.00039224,5.956e-05,0.0,0 STARLINK-5177,1 54090U 22136AR  23171.80590603  .00005956  00000-0  39224-3 0  9995,2 54090  53.2168 111.2614 0001190 100.0864 260.0263 15.08817130 37093,6917.95,95.439,540.639,538.992,0.0
54090.0,STARLINK-5177,PAYLOAD,2023-06-21 06:28:10,15.08850923,0.0001216,53.2171,109.1793,90.4407,269.6725,8.0567e-05,9.95e-06,0.0,0 STARLINK-5177,1 54090U 22136AR  23172.26957077  .00000995  00000-0  80567-4 0  9993,2 54090  53.2171 109.1793 0001216  90.4407 269.6725 15.08850923 37630,6917.847,95.437,540.553,538.871,0.0
54090.0,STARLINK-5177,PAYLOAD,2023-06-21 12:49:44,15.08839244,0.0001575,53.2175,107.9855,77.5107,282.6061,-9.0612e-05,-1.73e-05,0.0,0 STARLINK-5177,1 54090U 22136AR  23172.53454439 -.00001730  00000-0 -90612-4 0  9999,2 54090  53.2175 107.9855 0001575  77.5107 282.6061 15.08839244 37204,6917.883,95.438,540.837,538.658,0.0
54090.0,STARLINK-5177,PAYLOAD,2023-06-21 19:11:17,15.08831309,0.0002494,53.2173,106.7965,79.1759,280.9513,-7.9267e-06,-4.15e-06,0.0,0 STARLINK-5177,1 54090U 22136AR  23172.79951163 -.00000415  00000-0 -79267-5 0  9996,2 54090  53.2173 106.7965 0002494  79.1759 280.9513 15.08831309 37244,6917.907,95.438,541.497,538.047,0.0
54090.0,STARLINK-5177,PAYLOAD,2023-06-23 01:23:36,15.08845952,0.000118,53.2168,101.1522,88.773,271.3398,0.00012622,1.722e-05,0.0,0 STARLINK-5177,1 54090U 22136AR  23174.05805627  .00001722  00000-0  12622-3 0  9990,2 54090  53.2168 101.1522 0001180  88.7730 271.3398 15.08845952 37909,6917.862,95.437,540.544,538.911,0.0
54090.0,STARLINK-5177,PAYLOAD,2023-06-23 18:52:51,15.08831218,0.0001241,53.2165,97.8776,87.3671,272.7463,6.5833e-05,7.6e-06,0.0,0 STARLINK-5177,1 54090U 22136AR  23174.78670796  .00000760  00000-0  65833-4 0  9991,2 54090  53.2165  97.8776 0001241  87.3671 272.7463 15.08831218 38016,6917.907,95.438,540.631,538.914,0.0
54090.0,STARLINK-5177,PAYLOAD,2023-06-24 04:25:09,15.08841795,0.0001352,53.2177,96.0946,86.378,273.7366,9.4971e-05,1.224e-05,0.0,0 STARLINK-5177,1 54090U 22136AR  23175.18414304  .00001224  00000-0  94971-4 0  9998,2 54090  53.2177  96.0946 0001352  86.3780 273.7366 15.08841795 38072,6917.875,95.437,540.675,538.805,0.0
54090.0,STARLINK-5177,PAYLOAD,2023-06-25 04:15:56,15.08855655,0.0001243,53.2179,91.634,88.7107,271.4027,4.6969e-05,4.6e-06,0.0,0 STARLINK-5177,1 54090U 22136AR  23176.17773440  .00000460  00000-0  46969-4 0  9992,2 54090  53.2179  91.6340 0001243  88.7107 271.4027 15.08855655 38227,6917.833,95.437,540.557,538.838,0.0
54090.0,STARLINK-5177,PAYLOAD,2023-06-25 15:23:39,15.08836228,0.0001398,53.2171,89.5494,94.7194,265.3958,6.5143e-05,7.49e-06,0.0,0 STARLINK-5177,1 54090U 22136AR  23176.64142555  .00000749  00000-0  65143-4 0  9996,2 54090  53.2171  89.5494 0001398  94.7194 265.3958 15.08836228 38296,6917.892,95.438,540.724,538.79,0.0
54090.0,STARLINK-5177,PAYLOAD,2023-06-27 02:22:08,15.08832114,0.000125,53.2178,83.0135,84.9274,275.1861,0.00013602,1.877e-05,0.0,0 STARLINK-5177,1 54090U 22136AR  23178.09871047  .00001877  00000-0  13602-3 0  9997,2 54090  53.2178  83.0135 0001250  84.9274 275.1861 15.08832114 38518,6917.904,95.438,540.634,538.905,0.0
54090.0,STARLINK-5177,PAYLOAD,2023-06-28 03:48:18,15.08842938,0.0001282,53.2187,78.2558,76.1014,284.0121,0.00011609,1.56e-05,0.0,0 STARLINK-5177,1 54090U 22136AR  23179.15854736  .00001560  00000-0  11609-3 0  9995,2 54090  53.2187  78.2558 0001282  76.1014 284.0121 15.08842938 38673,6917.871,95.437,540.623,538.85,0.0
54090.0,STARLINK-5177,PAYLOAD,2023-06-29 17:57:34,15.08838825,0.0001272,53.2182,71.1188,85.873,274.2407,9.0529e-05,1.153e-05,0.0,0 STARLINK-5177,1 54090U 22136AR  23180.74831464  .00001153  00000-0  90529-4 0  9992,2 54090  53.2182  71.1188 0001272  85.8730 274.2407 15.08838825 38915,6917.884,95.438,540.629,538.869,0.0
54090.0,STARLINK-5177,PAYLOAD,2023-06-30 16:12:58,15.08834221,0.0001398,53.219,66.9553,82.0206,278.0945,6.7582e-05,7.88e-06,0.0,0 STARLINK-5177,1 54090U 22136AR  23181.67567838  .00000788  00000-0  67582-4 0  9992,2 54090  53.2190  66.9553 0001398  82.0206 278.0945 15.08834221 39059,6917.898,95.438,540.73,538.796,0.0
54090.0,STARLINK-5177,PAYLOAD,2023-07-02 01:36:04,15.08840507,0.0001216,53.2175,60.7092,93.1405,266.9727,-1.8549e-05,-5.83e-06,0.0,0 STARLINK-5177,1 54090U 22136AR  23183.06671712 -.00000583  00000-0 -18549-4 0  9998,2 54090  53.2175  60.7092 0001216  93.1405 266.9727 15.08840507 39266,6917.879,95.438,540.585,538.903,0.0
54090.0,STARLINK-5177,PAYLOAD,2023-07-03 01:26:50,15.08847473,0.0001237,53.2175,56.2487,86.3933,273.72,0.00013165,1.808e-05,0.0,0 STARLINK-5177,1 54090U 22136AR  23184.06030792  .00001808  00000-0  13165-3 0  9993,2 54090  53.2175  56.2487 0001237  86.3933 273.7200 15.08847473 39415,6917.858,95.437,540.578,538.867,0.0
54090.0,STARLINK-5177,PAYLOAD,2023-07-04 01:17:38,15.08840701,0.0001186,53.2182,51.7876,88.9089,271.2039,4.6879e-05,4.58e-06,0.0,0 STARLINK-5177,1 54090U 22136AR  23185.05391482  .00000458  00000-0  46879-4 0  9998,2 54090  53.2182  51.7876 0001186  88.9089 271.2039 15.08840701 39564,6917.878,95.438,540.564,538.923,0.0
54090.0,STARLINK-5177,PAYLOAD,2023-07-05 07:29:58,15.08839336,0.0001161,53.2182,46.1371,83.766,276.3464,-1.6423e-05,-5.49e-06,0.0,0 STARLINK-5177,1 54090U 22136AR  23186.31247744 -.00000549  00000-0 -16423-4 0  9994,2 54090  53.2182  46.1371 0001161  83.7660 276.3464 15.08839336 39754,6917.882,95.438,540.551,538.944,0.0
54090.0,STARLINK-5177,PAYLOAD,2023-07-05 17:02:17,15.08832811,0.00011,53.2181,44.3564,95.8486,264.2632,-3.2816e-05,-8.1e-06,0.0,0 STARLINK-5177,1 54090U 22136AR  23186.70992428 -.00000810  00000-0 -32816-4 0  9998,2 54090  53.2181  44.3564 0001100  95.8486 264.2632 15.08832811 39811,6917.902,95.438,540.528,539.006,0.0
54090.0,STARLINK-5177,PAYLOAD,2023-07-06 15:17:41,15.08839686,0.0001058,53.2183,40.1928,95.883,264.2283,5.8942e-05,6.5e-06,0.0,0 STARLINK-5177,1 54090U 22136AR  23187.63728054  .00000650  00000-0  58942-4 0  9991,2 54090  53.2183  40.1928 0001058  95.8830 264.2283 15.08839686 39950,6917.881,95.438,540.478,539.014,0.0
54090.0,STARLINK-5177,PAYLOAD,2023-07-07 00:49:59,15.08845515,0.0001046,53.2181,38.4081,91.5316,268.5796,0.00010281,1.349e-05,0.0,0 STARLINK-5177,1 54090U 22136AR  23188.03471531  .00001349  00000-0  10281-3 0  9990,2 54090  53.2181  38.4081 0001046  91.5316 268.5796 15.08845515 40010,6917.864,95.437,540.452,539.005,0.0
54090.0,STARLINK-5177,PAYLOAD,2023-07-07 19:54:38,15.08832266,0.0001079,53.2181,34.84,91.5369,268.5747,5.4661e-05,5.82e-06,0.0,0 STARLINK-5177,1 54090U 22136AR  23188.82960728  .00000582  00000-0  54661-4 0  9997,2 54090  53.2181  34.8400 0001079  91.5369 268.5747 15.08832266 40137,6917.904,95.438,540.515,539.023,0.0
54090.0,STARLINK-5177,PAYLOAD,2023-07-08 07:02:19,15.08840159,9.4e-05,53.2178,32.7574,83.5964,276.5135,6.7782e-05,7.91e-06,0.0,0 STARLINK-5177,1 54090U 22136AR  23189.29328255  .00000791  00000-0  67782-4 0  9992,2 54090  53.2178  32.7574 0000940  83.5964 276.5135 15.08840159 40208,6917.88,95.438,540.395,539.095,0.0
54090.0,STARLINK-5177,PAYLOAD,2023-07-09 18:00:48,15.08837999,9.53e-05,53.218,26.215,84.3629,275.7472,3.2473e-07,-2.83e-06,0.0,0 STARLINK-5177,1 54090U 22136AR  23190.75056601 -.00000283  00000-0  32473-6 0  9996,2 54090  53.2180  26.2150 0000953  84.3629 275.7472 15.08837999 40427,6917.887,95.438,540.411,539.092,0.0
